     2.11           N: GPS NAV DATA                         RINEX VERSION / TYPE
teqc  2019Feb25                         20221121 12:24:43UTCPGM / RUN BY / DATE
OSX ker:10.11.6|Core i5|gcc 4.3 -m64|OSX ker:10.10+|=+      COMMENT
    4.6566D-09  1.4901D-08 -5.9605D-08 -1.1921D-07          ION ALPHA
    8.1920D+04  9.8304D+04 -6.5536D+04 -5.2429D+05          ION BETA
   -2.793967723846D-09-2.664535259100D-15   405504     1538 DELTA-UTC: A0,A1,T,W
                                                            END OF HEADER
 3 09  7  1  0  0  0.0 4.138676449656D-04 5.115907697473D-12 0.000000000000D+00
    1.030000000000D+02-1.746875000000D+01 5.757025517507D-09 1.151363488054D+00
   -7.115304470062D-07 1.200660364702D-02 7.804483175278D-06 5.153634393692D+03
    2.592000000000D+05-1.452863216400D-07-2.184622470386D+00 2.048909664154D-07
    9.262046429525D-01 2.148750000000D+02 9.085871433072D-01-8.698933774080D-09
   -3.446572134992D-10 1.000000000000D+00 1.538000000000D+03 0.000000000000D+00
    2.000000000000D+00 0.000000000000D+00-4.190951585770D-09 1.030000000000D+02
    2.520180000000D+05 4.000000000000D+00
 7 09  7  1  0  0  0.0 1.607602462173D-05-7.958078640513D-13 0.000000000000D+00
    2.900000000000D+01-5.665625000000D+01 4.234104938895D-09-2.204615775325D-01
   -2.885237336159D-06 2.761280280538D-03 9.087845683098D-06 5.153667268753D+03
    2.592000000000D+05 2.793967723846D-08 2.119425735572D+00 1.862645149231D-08
    9.678013507081D-01 2.054375000000D+02 2.879245408334D+00-7.916401178456D-09
    3.593006806013D-10 1.000000000000D+00 1.538000000000D+03 0.000000000000D+00
    2.000000000000D+00 0.000000000000D+00-1.071020960808D-08 2.900000000000D+01
    2.520180000000D+05 4.000000000000D+00
16 09  7  1  0  0  0.0 3.708107396960D-05-3.524291969370D-12 0.000000000000D+00
    7.000000000000D+01-1.534375000000D+01 4.682337895311D-09-2.662578350641D+00
   -6.780028343201D-07 5.349473096430D-03 7.089227437973D-06 5.153568840027D+03
    2.592000000000D+05-9.872019290924D-08-3.094681347317D+00 3.352761268616D-08
    9.690644005306D-01 2.495937500000D+02-3.255527408298D-01-7.919972755798D-09
    2.925121843066D-10 1.000000000000D+00 1.538000000000D+03 0.000000000000D+00
    2.000000000000D+00 0.000000000000D+00-9.778887033463D-09 7.000000000000D+01
    2.520180000000D+05 4.000000000000D+00
21 09  7  1  0  0  0.0 5.354639142752D-06-2.160049916711D-12 0.000000000000D+00
    8.100000000000D+01 5.625000000000D+01 4.925205154564D-09-1.189035967801D+00
    2.818182110786D-06 1.543938671239D-02 8.627772331238D-06 5.153606430054D+03
    2.592000000000D+05 3.892928361893D-07-1.004910662586D+00-1.117587089539D-07
    9.336785568310D-01 1.990625000000D+02-2.584885040437D+00-8.139267604595D-09
   -2.410814705824D-10 1.000000000000D+00 1.538000000000D+03 0.000000000000D+00
    2.000000000000D+00 0.000000000000D+00-1.210719347000D-08 8.100000000000D+01
    2.520180000000D+05 4.000000000000D+00
13 09  7  1  0  0  0.0 3.005214966834D-04 7.958078640513D-13 0.000000000000D+00
    3.500000000000D+01-6.231250000000D+01 3.637651522787D-09 2.069214115371D+00
   -3.190711140633D-06 4.160524811596D-03 5.269423127174D-06 5.153689350128D+03
    2.592000000000D+05 1.210719347000D-07 1.129992787227D+00 1.862645149231D-09
    9.946796411310D-01 2.952187500000D+02 1.609112221320D+00-7.788538709614D-09
   -6.000249934494D-11 1.000000000000D+00 1.538000000000D+03 0.000000000000D+00
    2.000000000000D+00 0.000000000000D+00-1.117587089539D-08 3.500000000000D+01
    2.520180000000D+05 4.000000000000D+00
10 09  7  1  0  0  0.0-1.833820715547D-05-5.684341886081D-13 0.000000000000D+00
    5.200000000000D+01 7.043750000000D+01 4.546975114050D-09 2.428127295671D+00
    3.494322299957D-06 8.571102982387D-03 4.705041646957D-06 5.153627925873D+03
    2.592000000000D+05-6.146728992462D-08 4.816830839196D-02-8.754432201386D-08
    9.581414246762D-01 2.881875000000D+02 6.258528940623D-01-8.173197589343D-09
    2.535819912792D-11 1.000000000000D+00 1.538000000000D+03 0.000000000000D+00
    2.000000000000D+00 0.000000000000D+00-2.793967723846D-09 5.200000000000D+01
    2.520180000000D+05 4.000000000000D+00
24 09  7  1  0  0  0.0 2.009705640376D-04 2.955857780762D-12 0.000000000000D+00
    4.300000000000D+01 5.818750000000D+01 4.536617539759D-09-2.551384759165D+00
    2.829357981682D-06 6.656370940618D-03 9.195879101753D-06 5.153679399490D+03
    2.592000000000D+05-3.911554813385D-08-9.721932282760D-01 1.136213541031D-07
    9.503283771286D-01 1.982500000000D+02-6.503563900684D-01-7.928187383685D-09
   -3.075128091428D-10 1.000000000000D+00 1.538000000000D+03 0.000000000000D+00
    2.000000000000D+00 0.000000000000D+00-1.396983861923D-09 4.300000000000D+01
    2.520180000000D+05 4.000000000000D+00
19 09  7  1  0  0  0.0 2.067582681775D-05-1.364242052659D-12 0.000000000000D+00
    9.900000000000D+01-1.009375000000D+01 4.896632535828D-09 1.891309373358D+00
   -2.291053533554D-07 5.718677770346D-03 8.229166269302D-06 5.153620788574D+03
    2.592000000000D+05 1.862645149231D-07-1.996535343094D+00 8.381903171539D-08
    9.571846455311D-01 2.159687500000D+02-3.372876245148D-01-8.105694777580D-09
   -4.439470636057D-10 1.000000000000D+00 1.538000000000D+03 0.000000000000D+00
    2.000000000000D+00 0.000000000000D+00-1.443549990654D-08 9.900000000000D+01
    2.520180000000D+05 4.000000000000D+00
 8 09  7  1  0  0  0.0-2.097976393998D-04-1.364242052659D-12 0.000000000000D+00
    3.500000000000D+01-5.231250000000D+01 3.781228931934D-09-9.464067457998D-01
   -2.952292561531D-06 1.068131497595D-02 9.037554264069D-06 5.153641626358D+03
    2.592000000000D+05 6.519258022308D-08 2.180502932574D+00-1.359730958939D-07
    9.890383335079D-01 2.165625000000D+02 2.996327670789D+00-7.689606017242D-09
    4.585905307078D-10 1.000000000000D+00 1.538000000000D+03 0.000000000000D+00
    2.000000000000D+00 0.000000000000D+00-3.725290298462D-09 3.500000000000D+01
    2.520180000000D+05 4.000000000000D+00
 6 09  7  1  0  0  0.0 1.785359345376D-04 1.205080479849D-11 0.000000000000D+00
    1.170000000000D+02-1.418750000000D+01 5.438797976338D-09-2.721488895748D+00
   -6.258487701416D-07 5.989479483105D-03 7.588416337967D-06 5.153697916031D+03
    2.592000000000D+05 4.097819328308D-08-2.116738028830D+00 1.844018697739D-07
    9.336308276658D-01 2.170625000000D+02-1.326437384104D+00-8.274987543589D-09
   -2.239378993409D-10 1.000000000000D+00 1.538000000000D+03 0.000000000000D+00
    2.000000000000D+00 0.000000000000D+00-4.656612873077D-09 1.170000000000D+02
    2.520180000000D+05 4.000000000000D+00
18 09  7  1  0  0  0.0-4.376703873277D-05 3.183231456205D-12 0.000000000000D+00
    3.500000000000D+01 5.887500000000D+01 4.739483132782D-09-2.469346206296D+00
    3.060325980186D-06 1.059398555662D-02 4.284083843231D-06 5.153608716965D+03
    2.592000000000D+05 3.539025783539D-08 5.309772643058D-02-9.313225746155D-08
    9.421777319758D-01 2.876875000000D+02-2.411110515540D+00-8.178197797622D-09
    1.007184810433D-10 1.000000000000D+00 1.538000000000D+03 0.000000000000D+00
    2.000000000000D+00 0.000000000000D+00-1.071020960808D-08 3.500000000000D+01
    2.542620000000D+05 4.000000000000D+00
15 09  7  1  0  0  0.0-3.051180392504D-04-2.842170943040D-12 0.000000000000D+00
    8.200000000000D+01-4.540625000000D+01 4.559118477013D-09 2.137883051136D+00
   -2.462416887283D-06 1.456119120121D-03 4.207715392113D-06 5.153632097244D+03
    2.592000000000D+05-1.303851604462D-08 1.056698710143D+00-3.352761268616D-08
    9.561802162183D-01 2.956875000000D+02-4.659831173130D-01-8.230342826815D-09
   -5.857386840816D-11 1.000000000000D+00 1.538000000000D+03 0.000000000000D+00
    2.000000000000D+00 0.000000000000D+00-9.778887033463D-09 8.200000000000D+01
    2.553420000000D+05 4.000000000000D+00
22 09  7  1  0  0  0.0 1.964513212442D-04-5.684341886081D-13 0.000000000000D+00
    1.630000000000D+02 5.934375000000D+01 4.848059083978D-09 2.784277769808D+00
    3.073364496231D-06 5.117157474160D-03 4.157423973084D-06 5.153659368515D+03
    2.592000000000D+05 8.754432201386D-08 5.870996294561D-02 3.352761268616D-08
    9.398424261066D-01 2.881250000000D+02-1.892354705861D+00-8.272844597184D-09
    3.464430021702D-11 1.000000000000D+00 1.538000000000D+03 0.000000000000D+00
    4.000000000000D+00 0.000000000000D+00-1.769512891769D-08 1.630000000000D+02
    2.567820000000D+05 4.000000000000D+00
28 09  7  1  0  0  0.0-2.574315294623D-05-2.273736754432D-13 0.000000000000D+00
    5.000000000000D+01-1.531250000000D+01 4.645193490954D-09 3.030038748316D+00
   -8.773058652878D-07 1.491847925354D-02 7.003545761108D-06 5.153643392563D+03
    2.592000000000D+05 1.061707735062D-07-3.086545795090D+00-2.700835466385D-07
    9.672638453474D-01 2.460312500000D+02-2.023006722853D+00-7.766394930094D-09
    2.700112470522D-10 1.000000000000D+00 1.538000000000D+03 0.000000000000D+00
    2.800000000000D+00 0.000000000000D+00-1.071020960808D-08 5.000000000000D+01
    2.568120000000D+05 4.000000000000D+00
11 09  7  1  0  0  0.0-8.706469088793D-06-1.591615728103D-12 0.000000000000D+00
    6.300000000000D+01 4.553125000000D+01 6.164899649959D-09-4.010526262745D-01
    2.253800630569D-06 9.451918769628D-03 9.216368198395D-06 5.153692058563D+03
    2.592000000000D+05 1.676380634308D-08-1.238045445311D+00 1.378357410431D-07
    8.890054786466D-01 1.600625000000D+02 7.007780180116D-01-8.907871048585D-09
   -4.182317067436D-10 1.000000000000D+00 1.538000000000D+03 0.000000000000D+00
    2.000000000000D+00 0.000000000000D+00-1.164153218269D-08 6.300000000000D+01
    2.583120000000D+05 4.000000000000D+00
